[{"OBJECT_NAME":"ION SCV-010","OBJECT_ID":"2023-054Q","EPOCH":"2026-03-09T16:02:35.904768","MEAN_MOTION":15.25210322,"ECCENTRICITY":0.00127052,"INCLINATION":97.3904,"RA_OF_ASC_NODE":319.4312,"ARG_OF_PERICENTER":188.785,"MEAN_ANOMALY":171.3168,"EPHEMERIS_TYPE":0,"CLASSIFICATION_TYPE":"U","NORAD_CAT_ID":56192,"ELEMENT_SET_NO":999,"REV_AT_EPOCH":16102,"BSTAR":0.00025045068,"MEAN_MOTION_DOT":6.231e-5,"MEAN_MOTION_DDOT":0},{"OBJECT_NAME":"STARLINK-33835","OBJECT_ID":"2025-083M","EPOCH":"2026-03-09T05:11:56.393088","MEAN_MOTION":15.27561048,"ECCENTRICITY":0.00015807,"INCLINATION":43.005,"RA_OF_ASC_NODE":7.9491,"ARG_OF_PERICENTER":281.8187,"MEAN_ANOMALY":78.2488,"EPHEMERIS_TYPE":0,"CLASSIFICATION_TYPE":"U","NORAD_CAT_ID":63645,"ELEMENT_SET_NO":999,"REV_AT_EPOCH":5002,"BSTAR":0.0012551602,"MEAN_MOTION_DOT":0.00034419,"MEAN_MOTION_DDOT":0}]
